{
    "links": {
        "self": "http://www.neowsapp.com/rest/v1/neo/3789376?api_key=iIulBulltgU6a56xZRHN4H3l9WmuAYTsLGpBGhQ2"
    },
    "id": "3789376",
    "neo_reference_id": "3789376",
    "name": "(2017 VE13)",
    "designation": "2017 VE13",
    "nasa_jpl_url": "http://ssd.jpl.nasa.gov/sbdb.cgi?sstr=3789376",
    "absolute_magnitude_h": 25.2,
    "estimated_diameter": {
        "kilometers": {
            "estimated_diameter_min": 0.0242412481,
            "estimated_diameter_max": 0.0542050786
        },
        "meters": {
            "estimated_diameter_min": 24.2412481101,
            "estimated_diameter_max": 54.2050786336
        },
        "miles": {
            "estimated_diameter_min": 0.0150628086,
            "estimated_diameter_max": 0.0336814639
        },
        "feet": {
            "estimated_diameter_min": 79.5316564495,
            "estimated_diameter_max": 177.8381901842
        }
    },
    "is_potentially_hazardous_asteroid": false,
    "close_approach_data": [
        {
            "close_approach_date": "2017-11-11",
            "close_approach_date_full": "2017-Nov-11 16:15",
            "epoch_date_close_approach": 1510416900000,
            "relative_velocity": {
                "kilometers_per_second": "5.5827354307",
                "kilometers_per_hour": "20097.8475504536",
                "miles_per_hour": "12488.0208848916"
            },
            "miss_distance": {
                "astronomical": "0.0506947761",
                "lunar": "19.7202679029",
                "kilometers": "7583830.524686907",
                "miles": "4712373.7723650366"
            },
            "orbiting_body": "Earth"
        }
    ],
    "orbital_data": {
        "orbit_id": "8",
        "orbit_determination_date": "2017-11-29 06:18:19",
        "first_observation_date": "2017-11-13",
        "last_observation_date": "2017-11-26",
        "data_arc_in_days": 13,
        "observations_used": 52,
        "orbit_uncertainty": "7",
        "minimum_orbit_intersection": ".0545063",
        "jupiter_tisserand_invariant": "3.656",
        "epoch_osculation": "2459000.5",
        "eccentricity": ".4860226627777053",
        "semi_major_axis": "2.029272554426903",
        "inclination": ".6502076186824153",
        "ascending_node_longitude": "146.985244413148",
        "orbital_period": "1055.866471606764",
        "perihelion_distance": "1.043000104022624",
        "perihelion_argument": "262.1387321165731",
        "aphelion_distance": "3.015545004831182",
        "perihelion_time": "2459125.293281909331",
        "mean_anomaly": "317.4514555623745",
        "mean_motion": ".3409522034089882",
        "equinox": "J2000",
        "orbit_class": {
            "orbit_class_type": "AMO",
            "orbit_class_description": "Near-Earth asteroid orbits similar to that of 1221 Amor",
            "orbit_class_range": "1.017 AU < q (perihelion) < 1.3 AU"
        }
    },
    "is_sentry_object": false
}